{
  "norad_id": 68451,
  "name": "TRANSPORTER-16 OBJECT AM",
  "history": [
    {
      "epoch": "2026-04-14T03:15:47.325888Z",
      "apogee_km": 512.6035852680106,
      "perigee_km": 511.15778395707184,
      "latitude_deg": -1.7736923933993614e-05,
      "longitude_deg": 172.293585004567,
      "height_km": 515.3365373718191,
      "semi_major_axis_km": 6890.0176846125405,
      "eccentricity": 0.00010492,
      "inclination_deg": 97.4456,
      "raan_deg": 63.5575,
      "arg_perigee_deg": 120.8485,
      "mean_anomaly_deg": 239.2852,
      "mean_motion_rev_day": 15.18001697
    }
  ]
}