TRANSPORTER-16 OBJECT AM
1 68451U 26067AM  26104.13596442  .00004407  00000+0  22003-3 0  9996
2 68451  97.4456  63.5575 0001049 120.8485 239.2852 15.18001697  2229
